[{"OBJECT_NAME":"STARLINK-5235","OBJECT_ID":"2022-141AE","EPOCH":"2026-03-09T23:16:42.879936","MEAN_MOTION":15.08853937,"ECCENTRICITY":0.00013128,"INCLINATION":53.2196,"RA_OF_ASC_NODE":2.6006,"ARG_OF_PERICENTER":93.1986,"MEAN_ANOMALY":266.9156,"EPHEMERIS_TYPE":0,"CLASSIFICATION_TYPE":"U","NORAD_CAT_ID":54185,"ELEMENT_SET_NO":999,"REV_AT_EPOCH":18590,"BSTAR":0.00012535185,"MEAN_MOTION_DOT":1.708e-5,"MEAN_MOTION_DDOT":0},{"OBJECT_NAME":"SITRO-AIS 27","OBJECT_ID":"2024-039T","EPOCH":"2026-03-09T23:22:19.197120","MEAN_MOTION":14.92842486,"ECCENTRICITY":0.01447292,"INCLINATION":95.3935,"RA_OF_ASC_NODE":167.0882,"ARG_OF_PERICENTER":314.6456,"MEAN_ANOMALY":44.3041,"EPHEMERIS_TYPE":0,"CLASSIFICATION_TYPE":"U","NORAD_CAT_ID":59068,"ELEMENT_SET_NO":999,"REV_AT_EPOCH":10993,"BSTAR":0.00034082381,"MEAN_MOTION_DOT":4.294e-5,"MEAN_MOTION_DDOT":0}]
